{
  "type": "FeatureCollection",
  "features": [
    {
      "type": "Feature",
      "properties": {
        "OBJECT_NAME": "GPS BIIR-2  (PRN 13)",
        "OBJECT_ID": "1997-035A",
        "EPOCH": "2025-11-29T06:30:15.823008",
        "MEAN_MOTION": 2.00563476,
        "ECCENTRICITY": 0.0096619,
        "INCLINATION": 55.8886,
        "RA_OF_ASC_NODE": 106.3958,
        "ARG_OF_PERICENTER": 57.0273,
        "MEAN_ANOMALY": 303.8851,
        "EPHEMERIS_TYPE": 0,
        "CLASSIFICATION_TYPE": "U",
        "NORAD_CAT_ID": 24876,
        "ELEMENT_SET_NO": 999,
        "REV_AT_EPOCH": 20794,
        "BSTAR": 0,
        "MEAN_MOTION_DOT": 6.1e-07,
        "MEAN_MOTION_DDOT": 0,
        "norad_id": 24876,
        "name": "GPS BIIR-2  (PRN 13)",
        "group": "gps-ops",
        "longitude_deg": NaN,
        "latitude_deg": NaN,
        "alt_km": NaN,
        "orbit_class": "HEO",
        "timestamp": "2025-11-30T04:58:49.598610+00:00"
      },
      "geometry": {
        "type": "Point",
        "coordinates": [
          NaN,
          NaN
        ]
      }
    },
    {
      "type": "Feature",
      "properties": {
        "OBJECT_NAME": "GPS BIIR-4  (PRN 20)",
        "OBJECT_ID": "2000-025A",
        "EPOCH": "2025-11-29T03:41:32.637408",
        "MEAN_MOTION": 2.00568742,
        "ECCENTRICITY": 0.00387335,
        "INCLINATION": 55.0372,
        "RA_OF_ASC_NODE": 27.3877,
        "ARG_OF_PERICENTER": 240.65,
        "MEAN_ANOMALY": 127.3882,
        "EPHEMERIS_TYPE": 0,
        "CLASSIFICATION_TYPE": "U",
        "NORAD_CAT_ID": 26360,
        "ELEMENT_SET_NO": 999,
        "REV_AT_EPOCH": 18726,
        "BSTAR": 0,
        "MEAN_MOTION_DOT": -6.7e-07,
        "MEAN_MOTION_DDOT": 0,
        "norad_id": 26360,
        "name": "GPS BIIR-4  (PRN 20)",
        "group": "gps-ops",
        "longitude_deg": NaN,
        "latitude_deg": NaN,
        "alt_km": NaN,
        "orbit_class": "HEO",
        "timestamp": "2025-11-30T04:58:49.598789+00:00"
      },
      "geometry": {
        "type": "Point",
        "coordinates": [
          NaN,
          NaN
        ]
      }
    },
    {
      "type": "Feature",
      "properties": {
        "OBJECT_NAME": "GPS BIIR-5  (PRN 22)",
        "OBJECT_ID": "2000-040A",
        "EPOCH": "2025-11-29T15:02:17.215296",
        "MEAN_MOTION": 2.00567688,
        "ECCENTRICITY": 0.0126736,
        "INCLINATION": 54.894,
        "RA_OF_ASC_NODE": 223.0906,
        "ARG_OF_PERICENTER": 301.5621,
        "MEAN_ANOMALY": 247.3963,
        "EPHEMERIS_TYPE": 0,
        "CLASSIFICATION_TYPE": "U",
        "NORAD_CAT_ID": 26407,
        "ELEMENT_SET_NO": 999,
        "REV_AT_EPOCH": 18594,
        "BSTAR": 0,
        "MEAN_MOTION_DOT": 3.3e-07,
        "MEAN_MOTION_DDOT": 0,
        "norad_id": 26407,
        "name": "GPS BIIR-5  (PRN 22)",
        "group": "gps-ops",
        "longitude_deg": NaN,
        "latitude_deg": NaN,
        "alt_km": NaN,
        "orbit_class": "HEO",
        "timestamp": "2025-11-30T04:58:49.598802+00:00"
      },
      "geometry": {
        "type": "Point",
        "coordinates": [
          NaN,
          NaN
        ]
      }
    },
    {
      "type": "Feature",
      "properties": {
        "OBJECT_NAME": "GPS BIIR-8  (PRN 16)",
        "OBJECT_ID": "2003-005A",
        "EPOCH": "2025-11-29T07:27:57.341376",
        "MEAN_MOTION": 2.00571566,
        "ECCENTRICITY": 0.01468942,
        "INCLINATION": 54.9269,
        "RA_OF_ASC_NODE": 222.9125,
        "ARG_OF_PERICENTER": 51.6101,
        "MEAN_ANOMALY": 45.2509,
        "EPHEMERIS_TYPE": 0,
        "CLASSIFICATION_TYPE": "U",
        "NORAD_CAT_ID": 27663,
        "ELEMENT_SET_NO": 999,
        "REV_AT_EPOCH": 16730,
        "BSTAR": 0,
        "MEAN_MOTION_DOT": 3.1e-07,
        "MEAN_MOTION_DDOT": 0,
        "norad_id": 27663,
        "name": "GPS BIIR-8  (PRN 16)",
        "group": "gps-ops",
        "longitude_deg": NaN,
        "latitude_deg": NaN,
        "alt_km": NaN,
        "orbit_class": "HEO",
        "timestamp": "2025-11-30T04:58:49.599035+00:00"
      },
      "geometry": {
        "type": "Point",
        "coordinates": [
          NaN,
          NaN
        ]
      }
    },
    {
      "type": "Feature",
      "properties": {
        "OBJECT_NAME": "GPS BIIR-11 (PRN 19)",
        "OBJECT_ID": "2004-009A",
        "EPOCH": "2025-11-26T05:14:39.537024",
        "MEAN_MOTION": 2.00561394,
        "ECCENTRICITY": 0.01080929,
        "INCLINATION": 55.0011,
        "RA_OF_ASC_NODE": 283.885,
        "ARG_OF_PERICENTER": 167.3745,
        "MEAN_ANOMALY": 15.773,
        "EPHEMERIS_TYPE": 0,
        "CLASSIFICATION_TYPE": "U",
        "NORAD_CAT_ID": 28190,
        "ELEMENT_SET_NO": 999,
        "REV_AT_EPOCH": 15887,
        "BSTAR": 0,
        "MEAN_MOTION_DOT": -2.4e-07,
        "MEAN_MOTION_DDOT": 0,
        "norad_id": 28190,
        "name": "GPS BIIR-11 (PRN 19)",
        "group": "gps-ops",
        "longitude_deg": NaN,
        "latitude_deg": NaN,
        "alt_km": NaN,
        "orbit_class": "HEO",
        "timestamp": "2025-11-30T04:58:49.599234+00:00"
      },
      "geometry": {
        "type": "Point",
        "coordinates": [
          NaN,
          NaN
        ]
      }
    },
    {
      "type": "Feature",
      "properties": {
        "OBJECT_NAME": "GPS BIIR-13 (PRN 02)",
        "OBJECT_ID": "2004-045A",
        "EPOCH": "2025-11-29T14:56:30.424704",
        "MEAN_MOTION": 2.00568783,
        "ECCENTRICITY": 0.0170463,
        "INCLINATION": 55.2472,
        "RA_OF_ASC_NODE": 332.9338,
        "ARG_OF_PERICENTER": 308.6843,
        "MEAN_ANOMALY": 232.0952,
        "EPHEMERIS_TYPE": 0,
        "CLASSIFICATION_TYPE": "U",
        "NORAD_CAT_ID": 28474,
        "ELEMENT_SET_NO": 999,
        "REV_AT_EPOCH": 15442,
        "BSTAR": 0,
        "MEAN_MOTION_DOT": -4.9e-07,
        "MEAN_MOTION_DDOT": 0,
        "norad_id": 28474,
        "name": "GPS BIIR-13 (PRN 02)",
        "group": "gps-ops",
        "longitude_deg": NaN,
        "latitude_deg": NaN,
        "alt_km": NaN,
        "orbit_class": "HEO",
        "timestamp": "2025-11-30T04:58:49.599358+00:00"
      },
      "geometry": {
        "type": "Point",
        "coordinates": [
          NaN,
          NaN
        ]
      }
    },
    {
      "type": "Feature",
      "properties": {
        "OBJECT_NAME": "GPS BIIRM-1 (PRN 17)",
        "OBJECT_ID": "2005-038A",
        "EPOCH": "2025-11-29T19:29:44.200032",
        "MEAN_MOTION": 2.00549039,
        "ECCENTRICITY": 0.0132902,
        "INCLINATION": 55.0438,
        "RA_OF_ASC_NODE": 281.2216,
        "ARG_OF_PERICENTER": 293.3347,
        "MEAN_ANOMALY": 343.3501,
        "EPHEMERIS_TYPE": 0,
        "CLASSIFICATION_TYPE": "U",
        "NORAD_CAT_ID": 28874,
        "ELEMENT_SET_NO": 999,
        "REV_AT_EPOCH": 14783,
        "BSTAR": 0,
        "MEAN_MOTION_DOT": -3.8e-07,
        "MEAN_MOTION_DDOT": 0,
        "norad_id": 28874,
        "name": "GPS BIIRM-1 (PRN 17)",
        "group": "gps-ops",
        "longitude_deg": NaN,
        "latitude_deg": NaN,
        "alt_km": NaN,
        "orbit_class": "HEO",
        "timestamp": "2025-11-30T04:58:49.599449+00:00"
      },
      "geometry": {
        "type": "Point",
        "coordinates": [
          NaN,
          NaN
        ]
      }
    },
    {
      "type": "Feature",
      "properties": {
        "OBJECT_NAME": "GPS BIIRM-2 (PRN 31)",
        "OBJECT_ID": "2006-042A",
        "EPOCH": "2025-11-28T06:49:48.524160",
        "MEAN_MOTION": 2.00554619,
        "ECCENTRICITY": 0.01073633,
        "INCLINATION": 54.6911,
        "RA_OF_ASC_NODE": 159.3145,
        "ARG_OF_PERICENTER": 51.6109,
        "MEAN_ANOMALY": 105.7584,
        "EPHEMERIS_TYPE": 0,
        "CLASSIFICATION_TYPE": "U",
        "NORAD_CAT_ID": 29486,
        "ELEMENT_SET_NO": 999,
        "REV_AT_EPOCH": 14036,
        "BSTAR": 0,
        "MEAN_MOTION_DOT": 1.17e-06,
        "MEAN_MOTION_DDOT": 0,
        "norad_id": 29486,
        "name": "GPS BIIRM-2 (PRN 31)",
        "group": "gps-ops",
        "longitude_deg": NaN,
        "latitude_deg": NaN,
        "alt_km": NaN,
        "orbit_class": "HEO",
        "timestamp": "2025-11-30T04:58:49.599614+00:00"
      },
      "geometry": {
        "type": "Point",
        "coordinates": [
          NaN,
          NaN
        ]
      }
    }
  ]
}